NORAD_CAT_ID,OBJECT_NAME,OBJECT_TYPE,EPOCH,MEAN_MOTION,ECCENTRICITY,INCLINATION,RA_OF_ASC_NODE,ARG_OF_PERICENTER,MEAN_ANOMALY,BSTAR,MEAN_MOTION_DOT,MEAN_MOTION_DDOT,TLE_LINE0,TLE_LINE1,TLE_LINE2,SEMIMAJOR_AXIS,PERIOD,APOGEE,PERIGEE,DECAYED
54201.0,STARLINK-5199,PAYLOAD,2023-02-12 03:00:28,15.08850129,6.9e-05,53.2178,348.739,93.0865,267.0206,-8.2163e-05,-1.595e-05,0.0,0 STARLINK-5199,1 54201U 22141AW  23043.12533119 -.00001595  00000-0 -82163-4 0  9995,2 54201  53.2178 348.7390 0000690  93.0865 267.0206 15.08850129 16919,6917.849,95.437,540.192,539.237,0.0
54201.0,STARLINK-5199,PAYLOAD,2023-02-12 06:11:14,15.08852997,0.0001165,53.2159,348.1446,91.638,268.4745,-8.2557e-05,-1.602e-05,0.0,0 STARLINK-5199,1 54201U 22141AW  23043.25780858 -.00001602  00000-0 -82557-4 0  9999,2 54201  53.2159 348.1446 0001165  91.6380 268.4745 15.08852997 16703,6917.841,95.437,540.512,538.9,0.0
54201.0,STARLINK-5199,PAYLOAD,2023-02-13 02:51:16,15.08843584,6.92e-05,53.2171,344.278,98.1616,261.9455,-8.7404e-05,-1.678e-05,0.0,0 STARLINK-5199,1 54201U 22141AW  23044.11893934 -.00001678  00000-0 -87404-4 0  9994,2 54201  53.2171 344.2780 0000692  98.1616 261.9455 15.08843584 17061,6917.869,95.437,540.213,539.256,0.0
54201.0,STARLINK-5199,PAYLOAD,2023-02-13 12:23:35,15.08840775,0.0001208,53.2173,342.4928,97.6779,262.435,-0.00011542,-2.124e-05,0.0,0 STARLINK-5199,1 54201U 22141AW  23044.51638035 -.00002124  00000-0 -11542-3 0  9993,2 54201  53.2173 342.4928 0001208  97.6779 262.4350 15.08840775 16894,6917.878,95.438,540.579,538.907,0.0
54201.0,STARLINK-5199,PAYLOAD,2023-02-14 05:52:50,15.08832996,0.0001495,53.2174,339.2224,73.3915,286.7242,-3.8602e-05,-9.02e-06,0.0,0 STARLINK-5199,1 54201U 22141AW  23045.24503152 -.00000902  00000-0 -38602-4 0  9994,2 54201  53.2174 339.2224 0001495  73.3915 286.7242 15.08832996 17233,6917.902,95.438,540.801,538.733,0.0
54201.0,STARLINK-5199,PAYLOAD,2023-02-14 12:14:22,15.08840496,0.000181,53.2185,338.0334,73.9892,286.1299,-4.8377e-05,-1.058e-05,0.0,0 STARLINK-5199,1 54201U 22141AW  23045.50998794 -.00001058  00000-0 -48377-4 0  9996,2 54201  53.2185 338.0334 0001810  73.9892 286.1299 15.08840496 17044,6917.879,95.438,540.996,538.492,0.0
54201.0,STARLINK-5199,PAYLOAD,2023-02-14 18:35:56,15.08820396,0.0001381,53.2186,336.8452,78.5434,281.5713,0.00012949,1.772e-05,0.0,0 STARLINK-5199,1 54201U 22141AW  23045.77495678  .00001772  00000-0  12949-3 0  9994,2 54201  53.2186 336.8452 0001381  78.5434 281.5713 15.08820396 17089,6917.94,95.439,540.761,538.85,0.0
54201.0,STARLINK-5199,PAYLOAD,2023-02-15 05:43:36,15.08849844,9.81e-05,53.2185,334.7626,88.1779,271.9325,0.00018502,2.659e-05,0.0,0 STARLINK-5199,1 54201U 22141AW  23046.23861856  .00002659  00000-0  18502-3 0  9997,2 54201  53.2185 334.7626 0000981  88.1779 271.9325 15.08849844 17386,6917.85,95.437,540.394,539.037,0.0
54201.0,STARLINK-5199,PAYLOAD,2023-02-15 12:05:10,15.08834388,0.0001054,53.2188,333.573,87.1285,272.9828,4.3057e-05,3.97e-06,0.0,0 STARLINK-5199,1 54201U 22141AW  23046.50359263  .00000397  00000-0  43057-4 0  9992,2 54201  53.2188 333.5730 0001054  87.1285 272.9828 15.08834388 17190,6917.898,95.438,540.492,539.033,0.0
54201.0,STARLINK-5199,PAYLOAD,2023-02-16 02:23:35,15.08877555,0.0001575,53.2166,330.8974,85.8724,274.2448,0.00033364,5.031e-05,0.0,0 STARLINK-5199,1 54201U 22141AW  23047.09971468  .00005031  00000-0  33364-3 0  9993,2 54201  53.2166 330.8974 0001575  85.8724 274.2448 15.08877555 17519,6917.766,95.435,540.72,538.541,0.0
54201.0,STARLINK-5199,PAYLOAD,2023-02-16 11:55:57,15.08840161,0.0002275,53.2165,329.1134,64.4172,295.7055,1.5584e-05,-4e-07,0.0,0 STARLINK-5199,1 54201U 22141AW  23047.49718858 -.00000040  00000-0  15584-4 0  9990,2 54201  53.2165 329.1134 0002275  64.4172 295.7055 15.08840161 17576,6917.88,95.438,541.319,538.171,0.0
54201.0,STARLINK-5199,PAYLOAD,2023-02-17 00:39:03,15.08823357,0.0001835,53.2172,326.7334,67.4004,292.7182,-0.00011759,-2.158e-05,0.0,0 STARLINK-5199,1 54201U 22141AW  23048.02712544 -.00002158  00000-0 -11759-3 0  9998,2 54201  53.2172 326.7334 0001835  67.4004 292.7182 15.08823357 17652,6917.931,95.439,541.066,538.527,0.0
54201.0,STARLINK-5199,PAYLOAD,2023-02-17 03:49:48,15.08841223,0.0001258,53.2175,326.1374,72.146,287.9669,-1.6556e-05,-5.51e-06,0.0,0 STARLINK-5199,1 54201U 22141AW  23048.15959002 -.00000551  00000-0 -16556-4 0  9990,2 54201  53.2175 326.1374 0001258  72.1460 287.9669 15.08841223 17671,6917.877,95.437,540.612,538.871,0.0
54201.0,STARLINK-5199,PAYLOAD,2023-02-17 11:46:45,15.08832943,0.0001311,53.2168,324.6523,70.5872,289.5262,-0.00017875,-3.131e-05,0.0,0 STARLINK-5199,1 54201U 22141AW  23048.49080204 -.00003131  00000-0 -17875-3 0  9997,2 54201  53.2168 324.6523 0001311  70.5872 289.5262 15.08832943 17497,6917.902,95.438,540.674,538.86,0.0
54201.0,STARLINK-5199,PAYLOAD,2023-02-18 00:29:49,15.08854626,0.0001474,53.2169,322.2734,74.3698,285.7457,-0.00024795,-4.234e-05,0.0,0 STARLINK-5199,1 54201U 22141AW  23049.02071396 -.00004234  00000-0 -24795-3 0  9993,2 54201  53.2169 322.2734 0001474  74.3698 285.7457 15.08854626 17805,6917.836,95.437,540.72,538.681,0.0
54201.0,STARLINK-5199,PAYLOAD,2023-02-18 11:37:30,15.08860344,0.0001268,53.2168,320.1918,82.8333,277.2803,-0.00017241,-3.032e-05,0.0,0 STARLINK-5199,1 54201U 22141AW  23049.48438240 -.00003032  00000-0 -17241-3 0  9991,2 54201  53.2168 320.1918 0001268  82.8333 277.2803 15.08860344 17878,6917.818,95.436,540.56,538.806,0.0
54201.0,STARLINK-5199,PAYLOAD,2023-02-19 00:20:36,15.08830841,0.0001368,53.2172,317.8115,78.6965,281.418,0.00020021,2.899e-05,0.0,0 STARLINK-5199,1 54201U 22141AW  23050.01431110  .00002899  00000-0  20021-3 0  9999,2 54201  53.2172 317.8115 0001368  78.6965 281.4180 15.08830841 17953,6917.908,95.438,540.72,538.827,0.0
54201.0,STARLINK-5199,PAYLOAD,2023-02-20 00:11:23,15.08842271,0.0001264,53.2168,313.352,87.0198,273.0939,4.8794e-05,4.89e-06,0.0,0 STARLINK-5199,1 54201U 22141AW  23051.00791125  .00000489  00000-0  48794-4 0  9995,2 54201  53.2168 313.3520 0001264  87.0198 273.0939 15.08842271 17876,6917.873,95.437,540.613,538.864,0.0
54201.0,STARLINK-5199,PAYLOAD,2023-02-21 01:37:33,15.08842894,0.000111,53.2184,308.5971,92.2364,267.8755,-6.7338e-06,-3.95e-06,0.0,0 STARLINK-5199,1 54201U 22141AW  23052.06775136 -.00000395  00000-0 -67338-5 0  9990,2 54201  53.2184 308.5971 0001110  92.2364 267.8755 15.08842894 18265,6917.872,95.437,540.504,538.969,0.0
54201.0,STARLINK-5199,PAYLOAD,2023-02-21 09:34:29,15.08842208,0.0001238,53.2182,307.1097,93.4588,266.6546,-9.8646e-06,-4.45e-06,0.0,0 STARLINK-5199,1 54201U 22141AW  23052.39895163 -.00000445  00000-0 -98646-5 0  9991,2 54201  53.2182 307.1097 0001238  93.4588 266.6546 15.08842208 18083,6917.874,95.437,540.595,538.882,0.0
54201.0,STARLINK-5199,PAYLOAD,2023-02-21 20:42:11,15.08841389,0.0001208,53.2184,305.0273,91.138,268.975,1.9798e-05,2.7e-07,0.0,0 STARLINK-5199,1 54201U 22141AW  23052.86263111  .00000027  00000-0  19798-4 0  9999,2 54201  53.2184 305.0273 0001208  91.1380 268.9750 15.08841389 18159,6917.876,95.437,540.577,538.905,0.0
54201.0,STARLINK-5199,PAYLOAD,2023-02-22 03:03:43,15.08849592,0.0001175,53.2167,303.8369,90.4629,269.6497,8.0243e-05,9.9e-06,0.0,0 STARLINK-5199,1 54201U 22141AW  23053.12758244  .00000990  00000-0  80243-4 0  9997,2 54201  53.2167 303.8369 0001175  90.4629 269.6497 15.08849592 18423,6917.851,95.437,540.529,538.903,0.0
54201.0,STARLINK-5199,PAYLOAD,2023-02-22 17:22:13,15.08820912,8.11e-05,53.2178,301.1614,76.9529,283.1554,-0.00015412,-2.738e-05,0.0,0 STARLINK-5199,1 54201U 22141AW  23053.72377200 -.00002738  00000-0 -15412-3 0  9991,2 54201  53.2178 301.1614 0000811  76.9529 283.1554 15.08820912 18513,6917.939,95.439,540.365,539.243,0.0
54201.0,STARLINK-5199,PAYLOAD,2023-02-23 02:54:32,15.08832908,0.0001159,53.2165,299.3755,80.5115,279.6008,-6.1448e-05,-1.265e-05,0.0,0 STARLINK-5199,1 54201U 22141AW  23054.12120394 -.00001265  00000-0 -61448-4 0  9991,2 54201  53.2165 299.3755 0001159  80.5115 279.6008 15.08832908 18579,6917.902,95.438,540.569,538.965,0.0
54201.0,STARLINK-5199,PAYLOAD,2023-02-24 02:45:17,15.08853539,0.0001065,53.216,294.9147,80.9718,279.1395,6.9263e-05,8.15e-06,0.0,0 STARLINK-5199,1 54201U 22141AW  23055.11478502  .00000815  00000-0  69263-4 0  9999,2 54201  53.2160 294.9147 0001065  80.9718 279.1395 15.08853539 18723,6917.839,95.437,540.441,538.967,0.0
54201.0,STARLINK-5199,PAYLOAD,2023-02-24 21:49:56,15.08833229,0.0001183,53.217,291.3459,85.9567,274.1561,3.4591e-05,2.63e-06,0.0,0 STARLINK-5199,1 54201U 22141AW  23055.90968129  .00000263  00000-0  34591-4 0  9998,2 54201  53.2170 291.3459 0001183  85.9567 274.1561 15.08833229 18611,6917.901,95.438,540.584,538.948,0.0
54201.0,STARLINK-5199,PAYLOAD,2023-02-25 01:00:42,15.08835885,0.0001054,53.2169,290.7506,90.8799,269.2314,3.7573e-05,3.1e-06,0.0,0 STARLINK-5199,1 54201U 22141AW  23056.04215954  .00000310  00000-0  37573-4 0  9991,2 54201  53.2169 290.7506 0001054  90.8799 269.2314 15.08835885 18862,6917.893,95.438,540.487,539.029,0.0
54201.0,STARLINK-5199,PAYLOAD,2023-02-25 21:40:43,15.088392,6.13e-05,53.2166,286.8854,89.1605,270.9457,-0.00016322,-2.884e-05,0.0,0 STARLINK-5199,1 54201U 22141AW  23056.90328241 -.00002884  00000-0 -16322-3 0  9998,2 54201  53.2166 286.8854 0000613  89.1605 270.9457 15.08839200 18769,6917.883,95.438,540.172,539.324,0.0
54201.0,STARLINK-5199,PAYLOAD,2023-02-26 00:51:28,15.08854368,9.57e-05,53.2171,286.2907,89.9833,270.1269,-2.4366e-05,-6.76e-06,0.0,0 STARLINK-5199,1 54201U 22141AW  23057.03574881 -.00000676  00000-0 -24366-4 0  9991,2 54201  53.2171 286.2907 0000957  89.9833 270.1269 15.08854368 19014,6917.836,95.437,540.364,539.039,0.0
54201.0,STARLINK-5199,PAYLOAD,2023-02-26 15:09:57,15.08842076,0.0001064,53.2165,283.6129,81.5465,278.5648,4.1662e-05,3.75e-06,0.0,0 STARLINK-5199,1 54201U 22141AW  23057.63191291  .00000375  00000-0  41662-4 0  9999,2 54201  53.2165 283.6129 0001064  81.5465 278.5648 15.08842076 19109,6917.874,95.437,540.475,539.003,0.0
